SARAL                   
1 39086U 13009A   22288.14703258  .00000110  00000+0  57031-4 0  9992
2 39086  98.5485 112.0280 0000248  31.3954 328.7245 14.32036394503611
GAOFEN 1                
1 39150U 13018A   22288.58894460  .00001066  00000+0  16019-3 0  9999
2 39150  98.0623 354.8863 0020694 256.3556 103.5347 14.76473742510462
VNREDSAT 1              
1 39160U 13021B   22288.47215726  .00000969  00000+0  19817-3 0  9994
2 39160  98.0692   1.2984 0001525  72.9835 287.1530 14.62972448504165
ARIRANG-5 (KOMPSAT-5)   
1 39227U 13042A   22288.50495765  .00002083  00000+0  15302-3 0  9992
2 39227  97.6311 112.6905 0001794  67.8910  16.4129 15.04529952502336
SKYSAT-A                
1 39418U 13066C   22288.38207729  .00002559  00000+0  20773-3 0  9993
2 39418  97.5370 356.6306 0028670 210.5603 149.3951 15.00200345486636
DUBAISAT-2              
1 39419U 13066D   22288.50561408  .00003492  00000+0  32110-3 0  9990
2 39419  97.4366 314.4153 0012151 230.3400 129.6752 14.95336362485131
GPM-CORE                
1 39574U 14009C   22288.57212345  .00015476  00000+0  22284-3 0  9996
2 39574  64.9990 139.4743 0007919 259.8209 100.2045 15.56197064490301
SENTINEL-1A             
1 39634U 14016A   22288.38485767  .00000006  00000+0  11033-4 0  9994
2 39634  98.1822 294.2416 0001330  79.4555 280.6792 14.59199113454513
KAZEOSAT 1              
1 39731U 14024A   22288.46066797  .00000339  00000+0  11680-3 0  9994
2 39731  98.4553   2.9002 0001343  90.7538 269.3807 14.42006397445380
ALOS-2                  
1 39766U 14029A   22288.52081864  .00000057  00000+0  14567-4 0  9991
2 39766  97.9227  23.9290 0001384  87.5037 272.6349 14.79471478453388
KAZEOSAT 2              
1 40010U 14033A   22288.41528400  .00000888  00000+0  11788-3 0  9993
2 40010  97.7035 169.3088 0015753  49.4912 310.7638 14.82083354450211
HODOYOSHI-4             
1 40011U 14033B   22288.38309118  .00001600  00000+0  20750-3 0  9995
2 40011  97.6577 156.5531 0027704  47.1067 313.2439 14.81848840449851
DEIMOS-2                
1 40013U 14033D   22288.40548873  .00002221  00000+0  26284-3 0  9991
2 40013  97.7445 182.3972 0002687  81.4404 278.7087 14.85578644451003
HODOYOSHI-3             
1 40015U 14033F   22287.81609241  .00000820  00000+0  11627-3 0  9992
2 40015  97.6274 135.7657 0038092  74.0794 286.4611 14.79037392448979
SPOT 7                  
1 40053U 14034A   22288.41374647  .00000528  00000+0  12334-3 0  9992
2 40053  98.1606 353.8084 0001133  83.9222 276.2103 14.58563590441577
SKYSAT-B                
1 40072U 14037D   22287.88978376  .00001119  00000+0  14882-3 0  9992
2 40072  98.3894 162.2030 0005212 299.3087  60.7603 14.81869560446934
WORLDVIEW-3 (WV-3)      
1 40115U 14048A   22287.84489331  .00001316  00000+0  16006-3 0  9995
2 40115  97.8448   1.0187 0002681 123.4207 236.7264 14.85121621442838
GAOFEN 2                
1 40118U 14049A   22288.45680599  .00001551  00000+0  20817-3 0  9992
2 40118  97.7503 352.9730 0005358 279.5486  80.5118 14.80693915440858
YAOGAN 21               
1 40143U 14053A   22288.47690104  .00008973  00000+0  37796-3 0  9999
2 40143  97.3380 353.2965 0015906 160.7661 324.6069 15.23458328450825
YAOGAN 22               
1 40275U 14063A   22288.51271971 -.00000008  00000+0  10000-3 0  9999
2 40275 100.5830  48.8549 0005993 338.8102  21.2763 13.15444655383537
ASNARO                  
1 40298U 14070A   22288.48167810  .00013549  00000+0  63573-3 0  9990
2 40298  97.4612   9.2244 0002710 134.7066 353.3817 15.19770798440420
HODOYOSHI-1             
1 40299U 14070B   22288.49643080  .00009595  00000+0  35149-3 0  9994
2 40299  97.2313 353.0914 0013544  73.5771  51.6635 15.28129222441383
QSAT-EOS                
1 40301U 14070D   22288.46667947  .00037255  00000+0  92173-3 0  9997
2 40301  97.1944 353.6928 0018694  40.7447  87.2283 15.40172188441943
YAOGAN 23               
1 40305U 14071A   22288.52969097  .00012921  00000+0  55270-3 0  9990
2 40305  97.6197 241.4197 0002763  84.6842 340.3444 15.22960598438825
YAOGAN 24               
1 40310U 14072A   22288.41770257  .00001342  00000+0  20074-3 0  9992
2 40310  97.9893  47.3776 0016163 248.7457 111.2022 14.76280221425938
CBERS 4                 
1 40336U 14079A   22288.58474187  .00000229  00000+0  94862-4 0  9998
2 40336  98.4735   0.3531 0001706  86.0319 274.1066 14.35462127411644
RESURS P2               
1 40360U 14087A   22288.46610167  .00009737  00000+0  26310-3 0  9996
2 40360  97.2012  11.0240 0009453  25.9359 102.5533 15.37896082436694
YAOGAN 26               
1 40362U 14088A   22288.43558089  .00010361  00000+0  43145-3 0  9990
2 40362  97.1338 332.4349 0007519  42.8300  84.7651 15.23886333434290
SMAP                    
1 40376U 15003A   22287.88221180  .00000633  00000+0  13174-3 0  9990
2 40376  98.1300 292.9414 0001785  99.4217 260.7187 14.63338678411452
KOMPSAT-3A              
1 40536U 15014A   22288.56838052  .00006747  00000+0  38989-3 0  9991
2 40536  97.5406 229.6203 0007399  62.1257  48.5822 15.12601718417199
SENTINEL-2A             
1 40697U 15028A   22288.47329384  .00000211  00000+0  96959-4 0  9999
2 40697  98.5665   1.5207 0001157  90.8248 269.3069 14.30825065382010
GAOFEN 8                
1 40701U 15030A   22288.64765578  .00017272  00000+0  73324-3 0  9991
2 40701  97.5784  64.2431 0002613  19.7045 103.6158 15.23149141406681
CARBONITE 1 (CBNT-1)    
1 40718U 15032D   22288.42972531  .00001883  00000+0  28262-3 0  9998
2 40718  97.7194 147.4739 0016520 351.9635   8.1290 14.75592891391116
YAOGAN 27               
1 40878U 15040A   22288.50802578 -.00000004  00000+0  10000-3 0  9992
2 40878 100.1214 315.2010 0008963  71.0430 289.1660 13.15982154342821
GAOFEN 9-01             
1 40894U 15047A   22288.49703963  .00001230  00000+0  18280-3 0  9992
2 40894  97.8062 354.9071 0032633 178.9657 181.1627 14.76382113381899
LAPAN-A2                
1 40931U 15052B   22288.59075332  .00001319  00000+0  94026-4 0  9994
2 40931   5.9952  32.0125 0013148  67.0519 293.1136 14.76888661381133
YAOGAN 28               
1 41026U 15064A   22288.65526447  .00010083  00000+0  42752-3 0  9994
2 41026  97.5721  72.3081 0006402 247.6309 240.3485 15.23310273386538
YAOGAN 29               
1 41038U 15069A   22288.48253685  .00000727  00000+0  10088-3 0  9995
2 41038  98.0612 289.2696 0002392  79.4322 280.7156 14.80954706372059
KENT RIDGE 1            
1 41167U 15077B   22288.56172745  .00003840  00000+0  18739-3 0  9993
2 41167  14.9757  53.3558 0010851 238.1005 209.7011 15.10391311377436
TELEOS 1                
1 41169U 15077D   22287.95558049  .00010206  00000+0  50795-3 0  9994
2 41169  14.9701  23.0732 0009646 288.0998  71.8271 15.13971843377657
GAOFEN 4                
1 41194U 15083A   22287.86854899 -.00000336  00000+0  00000+0 0  9995
2 41194   0.0869  99.9460 0002989 101.8100 240.0329  1.00273766 25065
JASON-3                 
1 41240U 16002A   22288.55697025 -.00000023  00000+0  16687-3 0  9997
2 41240  66.0438  39.6123 0007702 264.8058  95.2078 12.80928520315437
SENTINEL-3A             
1 41335U 16011A   22288.40341148  .00000146  00000+0  78428-4 0  9995
2 41335  98.6258 353.9716 0001144  93.8762 266.2549 14.26736265346879
ZIYUAN 3-2 (ZY 3-2)     
1 41556U 16033A   22288.44316137  .00008664  00000+0  38972-3 0  9990
2 41556  97.5245 357.1663 0000538 110.4897   5.1422 15.21353434354144
NUSAT-1 (FRESCO)        
1 41557U 16033B   22288.58109238  .00025850  00000+0  69436-3 0  9993
2 41557  97.3900  26.7186 0009227 309.6521 164.7962 15.37864636355825
NUSAT-2 (BATATA)        
1 41558U 16033C   22288.45221161  .00025632  00000+0  64778-3 0  9992
2 41558  97.4128  32.9760 0008753 296.2743 126.0187 15.39746026356090
CARTOSAT-2C             
1 41599U 16040A   22288.55637900  .00006427  00000+0  30675-3 0  9998
2 41599  97.4737 347.0234 0014509 122.7604  13.4022 15.19316227350165
SKYSAT-C1               
1 41601U 16040C   22287.47020574  .00016281  00000+0  42812-3 0  9990
2 41601  97.1445 359.8323 0004503  78.5250 281.6502 15.38642791352297
LAPAN-A3                
1 41603U 16040E   22288.45260252  .00002532  00000+0  11684-3 0  9997
2 41603  97.1957 320.2059 0014832  97.7882  15.0524 15.20999875350273
BIROS                   
1 41604U 16040F   22287.83821149  .00007242  00000+0  29032-3 0  9996
2 41604  97.1981 327.7371 0013164  74.0921 286.1767 15.25224218350658
GAOFEN 3                
1 41727U 16049A   22288.42278324  .00000132  00000+0  53125-4 0  9990
2 41727  98.4103 295.0038 0000891  51.1272 309.0010 14.42215287325381
SKYSAT-C4               
1 41771U 16058B   22288.14749187  .00015827  00000+0  41827-3 0  9990
2 41771  97.1056 349.7916 0001843 137.3777 222.7612 15.38501030339351
SKYSAT-C5               
1 41772U 16058C   22288.49177941  .00008075  00000+0  30099-3 0  9998
2 41772  97.2518 348.7984 0001930  96.7889 263.3570 15.27693793338099
SKYSAT-C2               
1 41773U 16058D   22287.60676538  .00015394  00000+0  40703-3 0  9992
2 41773  97.1070 349.6677 0003784  93.9725 266.1954 15.38486241339298
SKYSAT-C3               
1 41774U 16058E   22287.44238407  .00021660  00000+0  48942-3 0  9990
2 41774  97.1060 350.5536 0001332  46.9321 313.2039 15.43196136339330
ALSAT 1B                
1 41785U 16059C   22288.42575363  .00000570  00000+0  10274-3 0  9991
2 41785  97.8972 328.9789 0009204 197.2401 162.8499 14.70118834323446
PATHFINDER 1            
1 41787U 16059E   22288.56849414  .00000914  00000+0  18155-3 0  9997
2 41787  97.9011 327.6525 0030417 144.1734 216.1518 14.64126648323313
SCATSAT 1               
1 41790U 16059H   22287.84641260  .00000267  00000+0  78659-4 0  9997
2 41790  98.3072 330.3986 0004947 185.2254 174.8890 14.50937560320388
GOKTURK 1A              
1 41875U 16073A   22288.46109239  .00000714  00000+0  14902-3 0  9998
2 41875  98.1154 181.4829 0001308  82.8288 277.3048 14.62806280312820
RESOURCESAT-2A          
1 41877U 16074A   22288.45478042  .00000235  00000+0  12689-3 0  9999
2 41877  98.7091   2.1940 0001396  29.1544 330.9713 14.21630618303816
